STARLINK-30053          
1 56700U 23067N   23327.89655730 -.00000703  00000+0 -36952-4 0  9996
2 56700  43.0019 141.4399 0001385 280.5454  79.5232 15.02528851 29784
STARLINK-30125          
1 56701U 23067P   23327.82674442 -.00003907  00000+0 -27447-3 0  9998
2 56701  43.0016 141.7756 0001450 281.2368  78.8312 15.02511076 29778
STARLINK-30117          
1 56702U 23067Q   23328.52811995  .00004383  00000+0  33905-3 0  9996
2 56702  43.0019 138.3719 0000964 163.7259 196.3615 15.02565187 29027
STARLINK-30132          
1 56703U 23067R   23328.48819609 -.00000191  00000+0  96683-6 0  9991
2 56703  43.0027 138.1359 0001240 278.1953  81.8748 15.02538070 29021
STARLINK-30066          
1 56704U 23067S   23328.46822799 -.00001344  00000+0 -84469-4 0  9993
2 56704  43.0021 137.9766 0001388 253.7227 106.3463 15.02527530 29027
STARLINK-30080          
1 56705U 23067T   23327.81369697 -.00000392  00000+0 -13940-4 0  9993
2 56705  43.0033 128.7482 0001284 257.3537 102.7162 15.02531801 29924
STARLINK-30079          
1 56706U 23067U   23327.88323636  .00000741  00000+0  69893-4 0  9998
2 56706  43.0028 141.3370 0001149 277.0151  83.0561 15.02538686 29783
STARLINK-30070          
1 56707U 23067V   23328.48488849 -.00001084  00000+0 -65203-4 0  9998
2 56707  43.0042 138.1116 0000965 249.0211 111.0528 15.02522611 29026
STARLINK-30071          
1 56708U 23067W   23328.47156092  .00008213  00000+0  62239-3 0  9994
2 56708  43.0015 138.0113 0000977 275.0422  85.0309 15.02534930 29023
STARLINK-30085          
1 56709U 23067X   23327.87990154  .00001172  00000+0  10185-3 0  9993
2 56709  43.0025 141.3101 0001695 267.5544  92.5104 15.02522317 29525
ONEWEB-0561             
1 56710U 23068A   23327.87130104  .00000098  00000+0  17161-3 0  9994
2 56710  88.2910  96.3005 0001016  82.4207 277.7050 13.34314566 25745
ONEWEB-0668             
1 56711U 23068B   23328.58334491 -.00698636  00000+0 -11748+0 0  9993
2 56711  86.7650  63.4143 0012817 285.7785 250.6334 14.72399021 28636
ONEWEB-0676             
1 56712U 23068C   23328.58334491 -.00707928  00000+0 -12489+0 0  9992
2 56712  86.7790  63.3449 0012586 286.4340 124.6047 14.70353475 28629
ONEWEB-0677             
1 56713U 23068D   23327.85094306  .00000087  00000+0  14787-3 0  9997
2 56713  88.3246  94.3311 0002027  82.6265 277.5107 13.34763326 25921
ONEWEB-0678             
1 56714U 23068E   23327.89427325 -.00000086  00000+0 -26229-3 0  9998
2 56714  87.8998  85.5462 0001466 106.8955 253.2337 13.15554186 26186
ONEWEB-0679             
1 56715U 23068F   23328.58334491 -.00711393  00000+0 -12272+0 0  9996
2 56715  86.7694  63.4041 0012872 285.9504 260.5739 14.71339994 28638
ONEWEB-0680             
1 56716U 23068G   23328.58334491  .00000014  00000+0  00000+0 0  9992
2 56716  87.8945  70.2820 0012318 319.0225 177.7311 13.39694090 28173
ONEWEB-0681             
1 56717U 23068H   23328.58334491 -.00450967  00000+0 -85292+0 0  9997
2 56717  87.8441  70.2971 0012099 316.3021 342.4356 13.41005367 28156
ONEWEB-0682             
1 56718U 23068J   23328.58334491  .00000013  00000+0  00000+0 0  9993
2 56718  87.9181  85.4629 0001854 104.5933  75.0974 13.20654285 27131
ONEWEB-0683             
1 56719U 23068K   23328.58334491  .00000013  00000+0  00000+0 0  9994
2 56719  87.9031  85.4310 0002859 102.2671  48.9087 13.16657499 27109
ONEWEB-0684             
1 56720U 23068L   23328.40592686  .00007283  00000+0  19341-1 0  9995
2 56720  87.9045  85.5404 0002240 128.0331 232.1002 13.15388052 26911
ONEWEB-0686             
1 56721U 23068M   23328.58334491 -.00766374  00000+0 -13038+0 0  9993
2 56721  86.7591  63.3699 0012262 288.1223  89.2585 14.71716789 28620
ONEWEB-0694             
1 56722U 23068N   23328.58334491 -.00717148  00000+0 -11072+0 0  9995
2 56722  86.7418  63.4556 0012178 286.7645 103.9531 14.76146592 28629
ONEWEB-0696             
1 56723U 23068P   23327.83012486 -.00000074  00000+0 -22981-3 0  9998
2 56723  87.8998  85.6290 0001223  99.8835 260.2433 13.15544783 26250
ONEWEB-0703             
1 56724U 23068Q   23328.37266884  .00007898  00000+0  20976-1 0  9991
2 56724  87.9018  85.5436 0000986  51.8433 308.2786 13.15387934 26913
ONEWEB-0721             
1 56725U 23068R   23328.30467498  .00004590  00000+0  55301-3 0  9997
2 56725  86.6787  62.0622 0008517 284.0616  75.9661 14.83645884 28662
IRIDIUM 181             
1 56726U 23068S   23327.82100322  .00000755  00000+0  21724-3 0  9995
2 56726  86.8640  68.6348 0003195  91.0883 269.0685 14.43576664 27362
IRIDIUM 177             
1 56727U 23068T   23328.37824849  .00002710  00000+0  35308-3 0  9990
2 56727  86.2002  53.0598 0002187  94.2952 265.8519 14.80235994 27938
IRIDIUM 174             
1 56728U 23068U   23328.30519631  .00002910  00000+0  37935-3 0  9994
2 56728  86.2006  53.1812 0002106  98.9238 261.2221 14.80237125 27929
IRIDIUM 178             
1 56729U 23068V   23327.75904808  .00002327  00000+0  30270-3 0  9994
2 56729  86.5802  61.1196 0002235  94.6032 265.5445 14.80237090 27846
IRIDIUM 179             
1 56730U 23068W   23328.29441366  .00002897  00000+0  37773-3 0  9998
2 56730  86.6809  62.4319 0002102 103.4077 256.7379 14.80243981 27921
2023-069A               
1 56731U 23069A   23328.43768938  .00012774  00000+0  38166-3 0  9995
2 56731  41.0054 342.8755 0027327  41.2283 319.0596 15.33997619 28694
2023-069B               
1 56732U 23069B   23328.42692567  .00023490  00000+0  89207-3 0  9998
2 56732  41.0128 350.0156 0007693  44.9683 315.1758 15.26261964 28619
2023-069C               
1 56733U 23069C   23328.44682774  .00018250  00000+0  51602-3 0  9996
2 56733  41.0061 341.1730 0024296  50.1035 310.1919 15.35601705 28719
PROGRESS-MS 23          
1 56740U 23071A   23327.84624499  .00024790  00000+0  44696-3 0  9991
2 56740  51.6430 257.7450 0000788 342.6291  72.9393 15.49617534426553
NEXTSAT-2               
1 56743U 23072A   23328.45349111  .00010697  00000+0  68022-3 0  9998
2 56743  97.5393 152.3435 0009417  40.3546 319.8380 15.08955451 27586
SNIPE 4                 
1 56744U 23072B   23328.46835059  .00010425  00000+0  64682-3 0  9998
2 56744  97.5457 152.6666 0008955  37.9501 322.2358 15.09867391 27596
SNIPE 2                 
1 56745U 23072C   23328.44984857  .00009757  00000+0  60227-3 0  9995
2 56745  97.5479 152.7166 0009088  45.6604 314.5369 15.10072713 27599
2023-072D               
1 56746U 23072D   23328.47791848  .00011733  00000+0  71203-3 0  9998
2 56746  97.5470 152.8316 0009398  43.6269 316.5702 15.10641939 27605
2023-072E               
1 56747U 23072E   23328.47717190  .00010748  00000+0  65618-3 0  9995
2 56747  97.5473 152.8365 0010031  45.9003 314.3050 15.10439811 27606
2023-072F               
1 56748U 23072F   23328.49860694  .00007161  00000+0  44519-3 0  9998
2 56748  97.5276 152.3246 0010733  47.0451 313.1677 15.09895225 27605
2023-072G               
1 56749U 23072G   23328.45312775  .00010308  00000+0  62546-3 0  9994
2 56749  97.5284 152.4012 0010842  48.8003 311.4160 15.10668737 27606
TROPICS-03              
1 56753U 23073B   23327.54246986  .00012710  00000+0  75016-3 0  9994
2 56753  32.7345 141.7045 0009900 147.3189 212.8095 15.10481472 27385
TROPICS-07              
1 56754U 23073C   23327.72639387  .00013545  00000+0  76864-3 0  9995
2 56754  32.7342 138.3782 0014014 145.3273 214.8313 15.11852265 27453
KONDOR FKA NO.1         
1 56756U 23074A   23328.51640618  .00007967  00000+0  37523-3 0  9995
2 56756  97.4376 160.5611 0001908  67.3077 292.8360 15.19785424 27583
ARABSAT-7B (BADR-8)     
1 56757U 23075A   23328.33243779  .00000152  00000+0  00000+0 0  9999
2 56757   0.0790  28.5337 0002260 288.9137 251.2641  1.00267582  1748
IRNSS-1J (NVS-01)       
1 56759U 23076A   23327.82800128 -.00000330  00000+0  00000+0 0  9991
2 56759   4.5315 270.5257 0007835 344.8679 234.7705  1.00275330  1813
STARLINK-6197           
1 56767U 23078A   23328.17271725 -.00002331  00000+0 -18757-3 0  9992
2 56767  69.9995 313.6674 0002708 260.7034  99.3819 14.98339332 27147
STARLINK-6198           
1 56768U 23078B   23328.30492890 -.00007577  00000+0 -12656-3 0  9995
2 56768  69.9987 276.3732 0002314 277.6185  82.4738 15.51173388 28079
STARLINK-5978           
1 56769U 23078C   23328.16435968  .00000395  00000+0  40916-4 0  9993
2 56769  69.9985 313.6367 0002793 262.2428  97.8414 14.98330537 27147
STARLINK-6342           
1 56770U 23078D   23328.36881846 -.00000053  00000+0  33252-5 0  9995
2 56770  69.9995 313.1466 0002534 273.0332  87.0537 14.98327473 27177
STARLINK-6339           
1 56771U 23078E   23328.30989229  .00001563  00000+0  14757-4 0  9998
2 56771  69.9979 275.5617 0003367 265.6852  94.3959 15.69934904 28091
STARLINK-6275           
1 56772U 23078F   23328.16019031 -.00000644  00000+0 -46213-4 0  9991
2 56772  69.9993 313.6225 0002704 261.0058  99.0796 14.98327868 27141
STARLINK-6296           
1 56773U 23078G   23327.99121209  .00001085  00000+0  10789-4 0  9990
2 56773  69.9999 276.4568 0002822 261.6256  98.4619 15.69926175 28043
STARLINK-6190           
1 56774U 23078H   23328.14783127 -.00000496  00000+0 -33779-4 0  9993
2 56774  69.9997 313.5788 0002325 252.6352 107.4553 14.98324596 27142
STARLINK-6292           
1 56775U 23078J   23327.92697352  .00001149  00000+0  11326-4 0  9991
2 56775  70.0012 276.6325 0002469 260.9348  99.1568 15.69918573 27771
STARLINK-6274           
1 56776U 23078K   23327.98230660 -.00000868  00000+0 -11976-4 0  9993
2 56776  69.9988 277.2543 0003057 267.4346  92.6490 15.51228150 28021
STARLINK-5582           
1 56777U 23078L   23328.10990757 -.00001138  00000+0 -87652-4 0  9994
2 56777  70.0005 293.9721 0002388 251.8363 108.2536 14.98319959 27628
STARLINK-6304           
1 56778U 23078M   23328.30457246  .00000038  00000+0  34553-5 0  9997
2 56778  69.9978 276.3726 0003301 269.6911  90.3897 15.51233917 28077
